$$SOE
2461295.500000000, A.D. 2026-Sep-12 00:00:00.0000, 3.170319702338162E+08, 3.040708752136768E+08, -5.602238982687248E+07,
2461302.500000000, A.D. 2026-Sep-19 00:00:00.0000, 3.087731788779073E+08, 3.103535865617681E+08, -5.333847174692205E+07,
2461309.500000000, A.D. 2026-Sep-26 00:00:00.0000, 3.003396488833249E+08, 3.164606346213353E+08, -5.062436905041938E+07,
2461316.500000000, A.D. 2026-Oct-03 00:00:00.0000, 2.917340441718932E+08, 3.223863413420576E+08, -4.788126258948131E+07,
2461323.500000000, A.D. 2026-Oct-10 00:00:00.0000, 2.829592196703297E+08, 3.281250175716910E+08, -4.511038363316306E+07,
2461330.500000000, A.D. 2026-Oct-17 00:00:00.0000, 2.740182265805109E+08, 3.336709697064090E+08, -4.231301467751387E+07,
2461337.500000000, A.D. 2026-Oct-24 00:00:00.0000, 2.649143175270215E+08, 3.390185067149519E+08, -3.949049019414023E+07,
2461344.500000000, A.D. 2026-Oct-31 00:00:00.0000, 2.556509516516252E+08, 3.441619474811173E+08, -3.664419732275407E+07,
2461351.500000000, A.D. 2026-Nov-07 00:00:00.0000, 2.462317999624433E+08, 3.490956285473534E+08, -3.377557652309155E+07,
2461358.500000000, A.D. 2026-Nov-14 00:00:00.0000, 2.366607511049967E+08, 3.538139131518834E+08, -3.088612212185900E+07,
2461365.500000000, A.D. 2026-Nov-21 00:00:00.0000, 2.269419157043247E+08, 3.583112022409524E+08, -2.797738252164745E+07,
2461372.500000000, A.D. 2026-Nov-28 00:00:00.0000, 2.170796282344606E+08, 3.625819444483994E+08, -2.505096021437195E+07,
2461379.500000000, A.D. 2026-Dec-05 00:00:00.0000, 2.070784499913414E+08, 3.666206443911605E+08, -2.210851197430633E+07,
2461386.500000000, A.D. 2026-Dec-12 00:00:00.0000, 1.969431732925318E+08, 3.704218723918802E+08, -1.915174898138680E+07,
2461393.500000000, A.D. 2026-Dec-19 00:00:00.0000, 1.866788249721105E+08, 3.739802756300851E+08, -1.618243669034037E+07,
2461400.500000000, A.D. 2026-Dec-26 00:00:00.0000, 1.762906689830219E+08, 3.772905898457721E+08, -1.320239449255833E+07,
2461407.500000000, A.D. 2027-Jan-02 00:00:00.0000, 1.657842083365803E+08, 3.803476513916830E+08, -1.021349520058382E+07,
2461414.500000000, A.D. 2027-Jan-09 00:00:00.0000, 1.551651864482693E+08, 3.831464096362545E+08, -7.217664353183329E+06,
2461421.500000000, A.D. 2027-Jan-16 00:00:00.0000, 1.444395878756668E+08, 3.856819397026153E+08, -4.216879332520694E+06,
2461428.500000000, A.D. 2027-Jan-23 00:00:00.0000, 1.336136384437371E+08, 3.879494554753761E+08, -1.213168290198505E+06,
2461435.500000000, A.D. 2027-Jan-30 00:00:00.0000, 1.226938048939025E+08, 3.899443227938472E+08, 1.791391106886148E+06,
2461442.500000000, A.D. 2027-Feb-06 00:00:00.0000, 1.116867944307939E+08, 3.916620731337212E+08, 4.794673109164685E+06,
2461449.500000000, A.D. 2027-Feb-13 00:00:00.0000, 1.005995536580970E+08, 3.930984189538816E+08, 7.794505645875484E+06,
2461456.500000000, A.D. 2027-Feb-20 00:00:00.0000, 8.943926449323240E+07, 3.942492698645004E+08, 1.078867257503322E+07,
2461463.500000000, A.D. 2027-Feb-27 00:00:00.0000, 7.821333840824212E+07, 3.951107463442101E+08, 1.377491603799090E+07,
2461470.500000000, A.D. 2027-Mar-06 00:00:00.0000, 6.692941197213701E+07, 3.956791928725244E+08, 1.675093880420586E+07,
2461477.500000000, A.D. 2027-Mar-13 00:00:00.0000, 5.559534205935916E+07, 3.959511924618953E+08, 1.971440692401791E+07,
2461484.500000000, A.D. 2027-Mar-20 00:00:00.0000, 4.421919956184927E+07, 3.959235816806698E+08, 2.266295272698838E+07,
2461491.500000000, A.D. 2027-Mar-27 00:00:00.0000, 3.280926177774256E+07, 3.955934655399159E+08, 2.559417810295317E+07,
2461498.500000000, A.D. 2027-Apr-03 00:00:00.0000, 2.137400365672269E+07, 3.949582321141998E+08, 2.850565804193097E+07,
2461505.500000000, A.D. 2027-Apr-10 00:00:00.0000, 9.922087947037606E+06, 3.940155668327737E+08, 3.139494442577910E+07,
2461512.500000000, A.D. 2027-Apr-17 00:00:00.0000, -1.537645742866074E+06, 3.927634663362095E+08, 3.425957006287584E+07,
2461519.500000000, A.D. 2027-Apr-24 00:00:00.0000, -1.299619289034365E+07, 3.912002517422210E+08, 3.709705294568714E+07,
2461526.500000000, A.D. 2027-May-01 00:00:00.0000, -2.444439670599442E+07, 3.893245812518652E+08, 3.990490069587994E+07,
2461533.500000000, A.D. 2027-May-08 00:00:00.0000, -3.587296116017236E+07, 3.871354627472379E+08, 4.268061521754384E+07,
2461540.500000000, A.D. 2027-May-15 00:00:00.0000, -4.727246585980118E+07, 3.846322672376949E+08, 4.542169775897714E+07,
2461547.500000000, A.D. 2027-May-22 00:00:00.0000, -5.863338430159429E+07, 3.818147404621481E+08, 4.812565429674795E+07,
2461554.500000000, A.D. 2027-May-29 00:00:00.0000, -6.994610210321337E+07, 3.786830110762181E+08, 5.079000079383729E+07,
2461561.500000000, A.D. 2027-Jun-05 00:00:00.0000, -8.120093427652144E+07, 3.752375984647527E+08, 5.341226848509015E+07,
2461568.500000000, A.D. 2027-Jun-12 00:00:00.0000, -9.238814348425019E+07, 3.714794205235051E+08, 5.599000938519739E+07,
2461575.500000000, A.D. 2027-Jun-19 00:00:00.0000, -1.034979595356968E+08, 3.674098003872636E+08, 5.852080194640547E+07,
2461582.500000000, A.D. 2027-Jun-26 00:00:00.0000, -1.145205997586930E+08, 3.630304717620450E+08, 6.100225679054452E+07,
2461589.500000000, A.D. 2027-Jul-03 00:00:00.0000, -1.254462900233775E+08, 3.583435827970586E+08, 6.343202247407770E+07,
2461596.500000000, A.D. 2027-Jul-10 00:00:00.0000, -1.362652862796675E+08, 3.533516984415987E+08, 6.580779125235789E+07,
2461603.500000000, A.D. 2027-Jul-17 00:00:00.0000, -1.469678964622164E+08, 3.480578011940033E+08, 6.812730480424210E+07,
2461610.500000000, A.D. 2027-Jul-24 00:00:00.0000, -1.575445024885029E+08, 3.424652901355656E+08, 7.038835986394538E+07,
2461617.500000000, A.D. 2027-Jul-31 00:00:00.0000, -1.679855818142189E+08, 3.365779784500080E+08, 7.258881370661438E+07,
2461624.500000000, A.D. 2027-Aug-07 00:00:00.0000, -1.782817286193005E+08, 3.304000905560056E+08, 7.472658956434704E+07,
2461631.500000000, A.D. 2027-Aug-14 00:00:00.0000, -1.884236767974180E+08, 3.239362585897258E+08, 7.679968212789091E+07,
2461638.500000000, A.D. 2027-Aug-21 00:00:00.0000, -1.984023239989762E+08, 3.171915148757553E+08, 7.880616276778823E+07,
2461645.500000000, A.D. 2027-Aug-28 00:00:00.0000, -2.082087531679754E+08, 3.101712816030495E+08, 8.074418422555138E+07,
2461652.500000000, A.D. 2027-Sep-04 00:00:00.0000, -2.178342526308582E+08, 3.028813602445248E+08, 8.261198505922994E+07,
2461659.500000000, A.D. 2027-Sep-11 00:00:00.0000, -2.272703360057751E+08, 2.953279201119637E+08, 8.440789389046414E+07,
2461666.500000000, A.D. 2027-Sep-18 00:00:00.0000, -2.365087616727662E+08, 2.875174854565444E+08, 8.613033336089946E+07,
2461673.500000000, A.D. 2027-Sep-25 00:00:00.0000, -2.455415514562883E+08, 2.794569211076555E+08, 8.777782374557167E+07,
2461680.500000000, A.D. 2027-Oct-02 00:00:00.0000, -2.543610083334201E+08, 2.711534167592338E+08, 8.934898619630937E+07,
2461687.500000000, A.D. 2027-Oct-09 00:00:00.0000, -2.629597330425148E+08, 2.626144699917249E+08, 9.084254559357619E+07,
2461694.500000000, A.D. 2027-Oct-16 00:00:00.0000, -2.713306394360449E+08, 2.538478680772916E+08, 9.225733298073715E+07,
2461701.500000000, A.D. 2027-Oct-23 00:00:00.0000, -2.794669682351240E+08, 2.448616686736031E+08, 9.359228754422523E+07,
2461708.500000000, A.D. 2027-Oct-30 00:00:00.0000, -2.873622987398220E+08, 2.356641801344321E+08, 9.484645814648037E+07,
2461715.500000000, A.D. 2027-Nov-06 00:00:00.0000, -2.950105596009518E+08, 2.262639426890363E+08, 9.601900460600351E+07,
2461722.500000000, A.D. 2027-Nov-13 00:00:00.0000, -3.024060405947483E+08, 2.166697085447482E+08, 9.710919873704636E+07,
2461729.500000000, A.D. 2027-Nov-20 00:00:00.0000, -3.095434024624698E+08, 2.068904188603119E+08, 9.811642470660502E+07,
2461736.500000000, A.D. 2027-Nov-27 00:00:00.0000, -3.164176831725146E+08, 1.969351806829594E+08, 9.904017880650437E+07,
2461743.500000000, A.D. 2027-Dec-04 00:00:00.0000, -3.230243026234885E+08, 1.868132448927107E+08, 9.988006891026035E+07,
2461750.500000000, A.D. 2027-Dec-11 00:00:00.0000, -3.293590663460329E+08, 1.765339843223233E+08, 1.006358136001218E+08,
2461757.500000000, A.D. 2027-Dec-18 00:00:00.0000, -3.354181679445217E+08, 1.661068718420538E+08, 1.013072409267493E+08,
2461764.500000000, A.D. 2027-Dec-25 00:00:00.0000, -3.411981901539673E+08, 1.555414585293612E+08, 1.018942868049276E+08,
2461771.500000000, A.D. 2028-Jan-01 00:00:00.0000, -3.466961045093743E+08, 1.448473520546542E+08, 1.023969930626607E+08,
$$EOE